[{"OBJECT_NAME":"STARLINK-5367","OBJECT_ID":"2023-015BE","EPOCH":"2026-03-09T22:00:01.999584","MEAN_MOTION":15.08841276,"ECCENTRICITY":0.00017679,"INCLINATION":42.9996,"RA_OF_ASC_NODE":337.108,"ARG_OF_PERICENTER":269.051,"MEAN_ANOMALY":156.2561,"EPHEMERIS_TYPE":0,"CLASSIFICATION_TYPE":"U","NORAD_CAT_ID":55501,"ELEMENT_SET_NO":999,"REV_AT_EPOCH":578,"BSTAR":0.00075503686,"MEAN_MOTION_DOT":0.00011894,"MEAN_MOTION_DDOT":0},{"OBJECT_NAME":"PEGASUS DEB","OBJECT_ID":"1994-029AFM","EPOCH":"2026-03-08T23:15:51.953184","MEAN_MOTION":14.33874448,"ECCENTRICITY":0.03356187,"INCLINATION":81.3387,"RA_OF_ASC_NODE":74.0014,"ARG_OF_PERICENTER":52.9091,"MEAN_ANOMALY":310.2272,"EPHEMERIS_TYPE":0,"CLASSIFICATION_TYPE":"U","NORAD_CAT_ID":39914,"ELEMENT_SET_NO":999,"REV_AT_EPOCH":60479,"BSTAR":0.002295222,"MEAN_MOTION_DOT":0.00012116,"MEAN_MOTION_DDOT":0}]
